{"type": "FeatureCollection", "features": [{"type": "Feature", "geometry": {"type": "Point", "coordinates": [-119.05524, 35.43424]}, "properties": {"location": "bakersfield_meadows_field_kbfl"}}, {"type": "Feature", "geometry": {"type": "Point", "coordinates": [-114.71451, 33.61876]}, "properties": {"location": "blythe_asos_kblh"}}, {"type": "Feature", "geometry": {"type": "Point", "coordinates": [-118.36543, 34.19966]}, "properties": {"location": "burbank-glendale-pasadena_airport_kbur"}}, {"type": "Feature", "geometry": {"type": "Point", "coordinates": [-114.61842, 34.76783]}, "properties": {"location": "needles_airport_keed"}}, {"type": "Feature", "geometry": {"type": "Point", "coordinates": [-119.72016, 36.77999]}, "properties": {"location": "fresno_yosemite_international_airport_kfat"}}, {"type": "Feature", "geometry": {"type": "Point", "coordinates": [-115.57656, 32.83464]}, "properties": {"location": "imperial_county_airport_kipl"}}, {"type": "Feature", "geometry": {"type": "Point", "coordinates": [-118.3866, 33.93816]}, "properties": {"location": "los_angeles_international_airport_klax"}}, {"type": "Feature", "geometry": {"type": "Point", "coordinates": [-118.14718, 33.81177]}, "properties": {"location": "long_beach_daugherty_field_klgb"}}, {"type": "Feature", "geometry": {"type": "Point", "coordinates": [-120.95492, 37.62544]}, "properties": {"location": "modesto_city-county_airport_kmod"}}, {"type": "Feature", "geometry": {"type": "Point", "coordinates": [-117.133333, 32.866667]}, "properties": {"location": "san_diego_miramar_wscmo_knkx"}}, {"type": "Feature", "geometry": {"type": "Point", "coordinates": [-122.23301, 37.7178]}, "properties": {"location": "oakland_metro_international_airport_koak"}}, {"type": "Feature", "geometry": {"type": "Point", "coordinates": [-119.20417, 34.20012]}, "properties": {"location": "oxnard_ventura_county_airport_koxr"}}, {"type": "Feature", "geometry": {"type": "Point", "coordinates": [-116.50433, 33.82216]}, "properties": {"location": "palm_springs_regional_airport_kpsp"}}, {"type": "Feature", "geometry": {"type": "Point", "coordinates": [-117.43523, 33.95282]}, "properties": {"location": "riverside_municipal_airport_kral"}}, {"type": "Feature", "geometry": {"type": "Point", "coordinates": [-122.25478, 40.15186]}, "properties": {"location": "red_bluff_municipal_airport_krbl"}}, {"type": "Feature", "geometry": {"type": "Point", "coordinates": [-121.49604, 38.50659]}, "properties": {"location": "sacramento_executive_airport_ksac"}}, {"type": "Feature", "geometry": {"type": "Point", "coordinates": [-117.1831, 32.7336]}, "properties": {"location": "san_diego_lindbergh_field_ksan"}}, {"type": "Feature", "geometry": {"type": "Point", "coordinates": [-119.84249, 34.4241]}, "properties": {"location": "santa_barbara_municipal_airport_ksba"}}, {"type": "Feature", "geometry": {"type": "Point", "coordinates": [-120.64406, 35.23815]}, "properties": {"location": "san_luis_obispo_airport_ksbp"}}, {"type": "Feature", "geometry": {"type": "Point", "coordinates": [-116.9725, 32.826111]}, "properties": {"location": "gillespie_field_airport_ksee"}}, {"type": "Feature", "geometry": {"type": "Point", "coordinates": [-122.36562, 37.61962]}, "properties": {"location": "san_francisco_international_airport_ksfo"}}, {"type": "Feature", "geometry": {"type": "Point", "coordinates": [-121.92444, 37.35938]}, "properties": {"location": "san_jose_international_airport_ksjc"}}, {"type": "Feature", "geometry": {"type": "Point", "coordinates": [-117.86746, 33.67975]}, "properties": {"location": "santa_ana_john_wayne_airport_ksna"}}, {"type": "Feature", "geometry": {"type": "Point", "coordinates": [-116.16412, 33.63166]}, "properties": {"location": "desert_resorts_regional_airport_ktrm"}}, {"type": "Feature", "geometry": {"type": "Point", "coordinates": [-123.20015, 39.12781]}, "properties": {"location": "ukiah_municipal_airport_kuki"}}, {"type": "Feature", "geometry": {"type": "Point", "coordinates": [-118.21255, 34.74121]}, "properties": {"location": "lancaster_william_j_fox_field_kwjf"}}, {"type": "Feature", "geometry": {"type": "Point", "coordinates": [-124.10479, 40.97844]}, "properties": {"location": "arcata_eureka_airport_kacv"}}, {"type": "Feature", "geometry": {"type": "Point", "coordinates": [-121.22637, 37.88997]}, "properties": {"location": "stockton_airport_ksck"}}, {"type": "Feature", "geometry": {"type": "Point", "coordinates": [-122.29773, 40.51462]}, "properties": {"location": "redding_airport_krdd"}}, {"type": "Feature", "geometry": {"type": "Point", "coordinates": [-120.514, 37.285]}, "properties": {"location": "merced_municipal_airport_macready_field_kmce"}}, {"type": "Feature", "geometry": {"type": "Point", "coordinates": [-115.163, 36.072]}, "properties": {"location": "mccarran_international_airport_klas"}}, {"type": "Feature", "geometry": {"type": "Point", "coordinates": [-118.291, 34.024]}, "properties": {"location": "downtown_los_angeles_usc_campus_kcqt"}}, {"type": "Feature", "geometry": {"type": "Point", "coordinates": [-117.65, 34.067]}, "properties": {"location": "ontario_international_airport_kont"}}]}