{"type": "FeatureCollection", "features": [{"type": "Feature", "geometry": {"type": "Point", "coordinates": [-106.377, 31.812]}, "properties": {"station_id": "72270023044", "station_name": "El Paso International Airport", "elevation": 1202.1}}, {"type": "Feature", "geometry": {"type": "Point", "coordinates": [-110.956, 32.132]}, "properties": {"station_id": "72274023160", "station_name": "Tucson International Airport", "elevation": 777.6}}, {"type": "Feature", "geometry": {"type": "Point", "coordinates": [-112.004, 33.428]}, "properties": {"station_id": "72278023183", "station_name": "Phoenix Sky Harbor Intl Airpo", "elevation": 339.2}}, {"type": "Feature", "geometry": {"type": "Point", "coordinates": [-112.367, 33.55]}, "properties": {"station_id": "72278523111", "station_name": "Luke Afb Airport", "elevation": 330.7}}, {"type": "Feature", "geometry": {"type": "Point", "coordinates": [-116.5, 33.833]}, "properties": {"station_id": "72286899999", "station_name": "Palm Springs Intl", "elevation": 145.0}}, {"type": "Feature", "geometry": {"type": "Point", "coordinates": [-117.433, 33.95]}, "properties": {"station_id": "72286903171", "station_name": null, "elevation": 249.0}}, {"type": "Feature", "geometry": {"type": "Point", "coordinates": [-117.433, 33.95]}, "properties": {"station_id": "72286999999", "station_name": "Riverside Muni", "elevation": 249.0}}, {"type": "Feature", "geometry": {"type": "Point", "coordinates": [-118.291, 34.024]}, "properties": {"station_id": "72287493134", "station_name": "Downtown L.A./Usc Campus", "elevation": 54.6}}, {"type": "Feature", "geometry": {"type": "Point", "coordinates": [-118.365, 34.2]}, "properties": {"station_id": "72288023152", "station_name": "Burbank-Glendale-Pasa Arpt", "elevation": 222.7}}, {"type": "Feature", "geometry": {"type": "Point", "coordinates": [-120.633, 35.233]}, "properties": {"station_id": "72289799999", "station_name": "San Luis Co Rgnl", "elevation": 65.0}}, {"type": "Feature", "geometry": {"type": "Point", "coordinates": [-117.183, 32.734]}, "properties": {"station_id": "72290023188", "station_name": "San Diego International Airpo", "elevation": 4.6}}, {"type": "Feature", "geometry": {"type": "Point", "coordinates": [-116.967, 32.833]}, "properties": {"station_id": "72290799999", "station_name": "Gillespie Fld", "elevation": 118.0}}, {"type": "Feature", "geometry": {"type": "Point", "coordinates": [-118.387, 33.938]}, "properties": {"station_id": "72295023174", "station_name": "Los Angeles International Air", "elevation": 29.7}}, {"type": "Feature", "geometry": {"type": "Point", "coordinates": [-118.147, 33.812]}, "properties": {"station_id": "72297023129", "station_name": "Long Beach / Daugherty Field", "elevation": 10.2}}, {"type": "Feature", "geometry": {"type": "Point", "coordinates": [-117.867, 33.68]}, "properties": {"station_id": "72297793184", "station_name": "J. Wayne Apt-Orange Co Apt", "elevation": 13.0}}, {"type": "Feature", "geometry": {"type": "Point", "coordinates": [-106.615, 35.042]}, "properties": {"station_id": "72365023050", "station_name": "Albuquerque Intl Sunport Airp", "elevation": 1618.4}}, {"type": "Feature", "geometry": {"type": "Point", "coordinates": [-106.096, 35.611]}, "properties": {"station_id": "72365623049", "station_name": "Santa Fe Municipal Airport", "elevation": 1916.3}}, {"type": "Feature", "geometry": {"type": "Point", "coordinates": [-113.934, 35.257]}, "properties": {"station_id": "72370093167", "station_name": "Kingman Airport", "elevation": 1043.5}}, {"type": "Feature", "geometry": {"type": "Point", "coordinates": [-112.422, 34.649]}, "properties": {"station_id": "72372323184", "station_name": "Ernest A. Love Field Arpt", "elevation": 1527.8}}, {"type": "Feature", "geometry": {"type": "Point", "coordinates": [-111.666, 35.144]}, "properties": {"station_id": "72375503103", "station_name": "Flagstaff Pulliam Arpt", "elevation": 2139.1}}, {"type": "Feature", "geometry": {"type": "Point", "coordinates": [-114.618, 34.768]}, "properties": {"station_id": "72380523179", "station_name": "Needles Airport", "elevation": 270.6}}, {"type": "Feature", "geometry": {"type": "Point", "coordinates": [-118.213, 34.741]}, "properties": {"station_id": "72381603159", "station_name": "General William J. Fox Airfie", "elevation": 712.6}}, {"type": "Feature", "geometry": {"type": "Point", "coordinates": [-119.055, 35.434]}, "properties": {"station_id": "72384023155", "station_name": "Meadows Field Airport", "elevation": 149.3}}, {"type": "Feature", "geometry": {"type": "Point", "coordinates": [-115.163, 36.072]}, "properties": {"station_id": "72386023169", "station_name": "Mccarran International Airpor", "elevation": 662.8}}, {"type": "Feature", "geometry": {"type": "Point", "coordinates": [-119.72, 36.78]}, "properties": {"station_id": "72389093193", "station_name": "Fresno Yosemite International", "elevation": 101.9}}, {"type": "Feature", "geometry": {"type": "Point", "coordinates": [-119.842, 34.424]}, "properties": {"station_id": "72392523190", "station_name": "Santa Barbara Municipal Airpo", "elevation": 2.5}}, {"type": "Feature", "geometry": {"type": "Point", "coordinates": [-119.204, 34.2]}, "properties": {"station_id": "72392793110", "station_name": "Oxnard Airport", "elevation": 11.9}}, {"type": "Feature", "geometry": {"type": "Point", "coordinates": [-93.39, 37.24]}, "properties": {"station_id": "72440013995", "station_name": "Springfield-Branson Regional", "elevation": 384.7}}, {"type": "Feature", "geometry": {"type": "Point", "coordinates": [-94.731, 39.297]}, "properties": {"station_id": "72446003947", "station_name": "Kansas City International Air", "elevation": 307.4}}, {"type": "Feature", "geometry": {"type": "Point", "coordinates": [-104.506, 38.289]}, "properties": {"station_id": "72464093058", "station_name": "Pueblo Memorial Airport", "elevation": 1424.5}}, {"type": "Feature", "geometry": {"type": "Point", "coordinates": [-104.867, 39.75]}, "properties": {"station_id": "72469023062", "station_name": "Denver Wsfo", "elevation": 1612.0}}, {"type": "Feature", "geometry": {"type": "Point", "coordinates": [-104.75, 39.717]}, "properties": {"station_id": "72469523036", "station_name": "Buckley Air Force Base", "elevation": 1726.1}}, {"type": "Feature", "geometry": {"type": "Point", "coordinates": [-103.215, 40.174]}, "properties": {"station_id": "72469824015", "station_name": "Colorado Plains Rgnl Arpt", "elevation": 1428.0}}, {"type": "Feature", "geometry": {"type": "Point", "coordinates": [-110.75, 39.617]}, "properties": {"station_id": "72470099999", "station_name": "Price/Carbon County", "elevation": 1799.0}}, {"type": "Feature", "geometry": {"type": "Point", "coordinates": [-112.149, 37.701]}, "properties": {"station_id": "72475623159", "station_name": "Bryce Canyon Airport", "elevation": 2309.9}}, {"type": "Feature", "geometry": {"type": "Point", "coordinates": [-120.518, 37.286]}, "properties": {"station_id": "72481523257", "station_name": "Mrcd Muni/Macready Fld Apt", "elevation": 46.5}}, {"type": "Feature", "geometry": {"type": "Point", "coordinates": [-121.496, 38.507]}, "properties": {"station_id": "72483023232", "station_name": "Sacramento Executive Airport", "elevation": 5.9}}, {"type": "Feature", "geometry": {"type": "Point", "coordinates": [-121.595, 38.701]}, "properties": {"station_id": "72483993225", "station_name": "Sacramento Intl Airport", "elevation": 7.5}}, {"type": "Feature", "geometry": {"type": "Point", "coordinates": [-119.768, 39.508]}, "properties": {"station_id": "72488023185", "station_name": "Reno/Tahoe International Airp", "elevation": 1342.5}}, {"type": "Feature", "geometry": {"type": "Point", "coordinates": [-121.226, 37.89]}, "properties": {"station_id": "72492023237", "station_name": "Stockton Metropolitan Airport", "elevation": 8.3}}, {"type": "Feature", "geometry": {"type": "Point", "coordinates": [-120.955, 37.625]}, "properties": {"station_id": "72492623258", "station_name": "Mdsto Cty-Co H Sham Fd Apt", "elevation": 26.6}}, {"type": "Feature", "geometry": {"type": "Point", "coordinates": [-122.233, 37.718]}, "properties": {"station_id": "72493023230", "station_name": "Metro Oakland Intl Airport", "elevation": 1.5}}, {"type": "Feature", "geometry": {"type": "Point", "coordinates": [-122.366, 37.62]}, "properties": {"station_id": "72494023234", "station_name": "San Francisco International A", "elevation": 3.2}}, {"type": "Feature", "geometry": {"type": "Point", "coordinates": [-121.924, 37.359]}, "properties": {"station_id": "72494523293", "station_name": "N Y. Mineta Sn Jo Intl Apt", "elevation": 15.0}}, {"type": "Feature", "geometry": {"type": "Point", "coordinates": [-104.808, 41.158]}, "properties": {"station_id": "72564024018", "station_name": "Cheyenne Airport", "elevation": 1864.9}}, {"type": "Feature", "geometry": {"type": "Point", "coordinates": [-105.673, 41.317]}, "properties": {"station_id": "72564524022", "station_name": "Laramie Regional Airport", "elevation": 2216.8}}, {"type": "Feature", "geometry": {"type": "Point", "coordinates": [-107.533, 40.5]}, "properties": {"station_id": "72570099999", "station_name": "Craig-Moffat", "elevation": 1915.0}}, {"type": "Feature", "geometry": {"type": "Point", "coordinates": [-111.965, 40.771]}, "properties": {"station_id": "72572024127", "station_name": "Salt Lake City International", "elevation": 1288.4}}, {"type": "Feature", "geometry": {"type": "Point", "coordinates": [-112.017, 41.194]}, "properties": {"station_id": "72575024126", "station_name": "Ogden-Hinckley Airport", "elevation": 1356.1}}, {"type": "Feature", "geometry": {"type": "Point", "coordinates": [-112.068, 43.52]}, "properties": {"station_id": "72578524145", "station_name": "Idaho Falls Regional Arpt", "elevation": 1442.7}}, {"type": "Feature", "geometry": {"type": "Point", "coordinates": [-115.786, 40.824]}, "properties": {"station_id": "72582524121", "station_name": "Elko Regional Airport", "elevation": 1540.5}}, {"type": "Feature", "geometry": {"type": "Point", "coordinates": [-114.483, 42.483]}, "properties": {"station_id": "72586699999", "station_name": "Joslin Fld Magic Va", "elevation": 1265.0}}, {"type": "Feature", "geometry": {"type": "Point", "coordinates": [-121.726, 42.147]}, "properties": {"station_id": "72589594236", "station_name": "Klamath Falls Airport", "elevation": 1244.5}}, {"type": "Feature", "geometry": {"type": "Point", "coordinates": [-123.2, 39.128]}, "properties": {"station_id": "72590523275", "station_name": "Ukiah Municipal Airport", "elevation": 183.7}}, {"type": "Feature", "geometry": {"type": "Point", "coordinates": [-122.255, 40.152]}, "properties": {"station_id": "72591024216", "station_name": "Red Bluff Municipal Arpt", "elevation": 108.1}}, {"type": "Feature", "geometry": {"type": "Point", "coordinates": [-122.299, 40.518]}, "properties": {"station_id": "72591524257", "station_name": "Redding Municipal Arpt", "elevation": 153.0}}, {"type": "Feature", "geometry": {"type": "Point", "coordinates": [-124.105, 40.978]}, "properties": {"station_id": "72594524283", "station_name": "Arcata Airport", "elevation": 64.5}}, {"type": "Feature", "geometry": {"type": "Point", "coordinates": [-96.754, 43.578]}, "properties": {"station_id": "72651014944", "station_name": "Joe Foss Field Airport", "elevation": 432.4}}, {"type": "Feature", "geometry": {"type": "Point", "coordinates": [-111.162, 45.788]}, "properties": {"station_id": "72679724132", "station_name": "Gallatin Field Airport", "elevation": 1350.7}}, {"type": "Feature", "geometry": {"type": "Point", "coordinates": [-116.241, 43.567]}, "properties": {"station_id": "72681024131", "station_name": "Boise Air Terminal/Gowen Fd A", "elevation": 860.5}}, {"type": "Feature", "geometry": {"type": "Point", "coordinates": [-124.244, 43.413]}, "properties": {"station_id": "72691724284", "station_name": "North Bend Municipal Arpt", "elevation": 5.2}}, {"type": "Feature", "geometry": {"type": "Point", "coordinates": [-122.609, 45.596]}, "properties": {"station_id": "72698024229", "station_name": "Portland International Airpor", "elevation": 6.7}}, {"type": "Feature", "geometry": {"type": "Point", "coordinates": [-114.094, 46.921]}, "properties": {"station_id": "72773024153", "station_name": "Missoula International Airpor", "elevation": 973.8}}, {"type": "Feature", "geometry": {"type": "Point", "coordinates": [-120.535, 46.564]}, "properties": {"station_id": "72781024243", "station_name": "Yakima Air Terminal/Mcalsr Fi", "elevation": 321.0}}, {"type": "Feature", "geometry": {"type": "Point", "coordinates": [-117.528, 47.622]}, "properties": {"station_id": "72785024157", "station_name": "Spokane International Airport", "elevation": 717.7}}, {"type": "Feature", "geometry": {"type": "Point", "coordinates": [-122.314, 47.445]}, "properties": {"station_id": "72793024233", "station_name": "Seattle-Tacoma International", "elevation": 112.5}}, {"type": "Feature", "geometry": {"type": "Point", "coordinates": [-115.033, 36.25]}, "properties": {"station_id": "74614023112", "station_name": "Nellis Afb Airport", "elevation": 570.0}}, {"type": "Feature", "geometry": {"type": "Point", "coordinates": [-117.577, 34.053]}, "properties": {"station_id": "74704003102", "station_name": "Ontario International Arpt", "elevation": 281.6}}, {"type": "Feature", "geometry": {"type": "Point", "coordinates": [-115.579, 32.834]}, "properties": {"station_id": "74718599999", "station_name": "Imperial Co", "elevation": -16.0}}, {"type": "Feature", "geometry": {"type": "Point", "coordinates": [-116.164, 33.632]}, "properties": {"station_id": "74718703104", "station_name": "Desert Resorts Rgnl Arpt", "elevation": -36.0}}, {"type": "Feature", "geometry": {"type": "Point", "coordinates": [-114.715, 33.619]}, "properties": {"station_id": "74718823158", "station_name": "Blythe Airport", "elevation": 120.4}}, {"type": "Feature", "geometry": {"type": "Point", "coordinates": [-117.133, 32.867]}, "properties": {"station_id": "99999993107", "station_name": "San Diego Miramar Nas", "elevation": 145.7}}]}