{"type": "FeatureCollection", "features": [{"type": "Feature", "geometry": {"type": "Point", "coordinates": [-119.05524, 35.43424]}, "properties": {"location": "bakersfield_meadows_field_kbfl", "station_name": "Bakersfield Meadows Field (KBFL)"}}, {"type": "Feature", "geometry": {"type": "Point", "coordinates": [-114.71451, 33.61876]}, "properties": {"location": "blythe_asos_kblh", "station_name": "Blythe Asos (KBLH)"}}, {"type": "Feature", "geometry": {"type": "Point", "coordinates": [-118.36543, 34.19966]}, "properties": {"location": "burbank-glendale-pasadena_airport_kbur", "station_name": "Burbank-Glendale-Pasadena Airport (KBUR)"}}, {"type": "Feature", "geometry": {"type": "Point", "coordinates": [-114.61842, 34.76783]}, "properties": {"location": "needles_airport_keed", "station_name": "Needles Airport (KEED)"}}, {"type": "Feature", "geometry": {"type": "Point", "coordinates": [-119.72016, 36.77999]}, "properties": {"location": "fresno_yosemite_international_airport_kfat", "station_name": "Fresno Yosemite International Airport (KFAT)"}}, {"type": "Feature", "geometry": {"type": "Point", "coordinates": [-115.57656, 32.83464]}, "properties": {"location": "imperial_county_airport_kipl", "station_name": "Imperial County Airport (KIPL)"}}, {"type": "Feature", "geometry": {"type": "Point", "coordinates": [-118.3866, 33.93816]}, "properties": {"location": "los_angeles_international_airport_klax", "station_name": "Los Angeles International Airport (KLAX)"}}, {"type": "Feature", "geometry": {"type": "Point", "coordinates": [-118.14718, 33.81177]}, "properties": {"location": "long_beach_daugherty_field_klgb", "station_name": "Long Beach Daugherty Field (KLGB)"}}, {"type": "Feature", "geometry": {"type": "Point", "coordinates": [-120.95492, 37.62544]}, "properties": {"location": "modesto_city-county_airport_kmod", "station_name": "Modesto City-County Airport (KMOD)"}}, {"type": "Feature", "geometry": {"type": "Point", "coordinates": [-117.133333, 32.866667]}, "properties": {"location": "san_diego_miramar_wscmo_knkx", "station_name": "San Diego Miramar Wscmo (KNKX)"}}, {"type": "Feature", "geometry": {"type": "Point", "coordinates": [-122.23301, 37.7178]}, "properties": {"location": "oakland_metro_international_airport_koak", "station_name": "Oakland Metro International Airport (KOAK)"}}, {"type": "Feature", "geometry": {"type": "Point", "coordinates": [-119.20417, 34.20012]}, "properties": {"location": "oxnard_ventura_county_airport_koxr", "station_name": "Oxnard Ventura County Airport (KOXR)"}}, {"type": "Feature", "geometry": {"type": "Point", "coordinates": [-116.50433, 33.82216]}, "properties": {"location": "palm_springs_regional_airport_kpsp", "station_name": "Palm Springs Regional Airport (KPSP)"}}, {"type": "Feature", "geometry": {"type": "Point", "coordinates": [-117.43523, 33.95282]}, "properties": {"location": "riverside_municipal_airport_kral", "station_name": "Riverside Municipal Airport (KRAL)"}}, {"type": "Feature", "geometry": {"type": "Point", "coordinates": [-122.25478, 40.15186]}, "properties": {"location": "red_bluff_municipal_airport_krbl", "station_name": "Red Bluff Municipal Airport (KRBL)"}}, {"type": "Feature", "geometry": {"type": "Point", "coordinates": [-121.49604, 38.50659]}, "properties": {"location": "sacramento_executive_airport_ksac", "station_name": "Sacramento Executive Airport (KSAC)"}}, {"type": "Feature", "geometry": {"type": "Point", "coordinates": [-117.1831, 32.7336]}, "properties": {"location": "san_diego_lindbergh_field_ksan", "station_name": "San Diego Lindbergh Field (KSAN)"}}, {"type": "Feature", "geometry": {"type": "Point", "coordinates": [-119.84249, 34.4241]}, "properties": {"location": "santa_barbara_municipal_airport_ksba", "station_name": "Santa Barbara Municipal Airport (KSBA)"}}, {"type": "Feature", "geometry": {"type": "Point", "coordinates": [-120.64406, 35.23815]}, "properties": {"location": "san_luis_obispo_airport_ksbp", "station_name": "San Luis Obispo Airport (KSBP)"}}, {"type": "Feature", "geometry": {"type": "Point", "coordinates": [-116.9725, 32.826111]}, "properties": {"location": "gillespie_field_airport_ksee", "station_name": "Gillespie Field Airport (KSEE)"}}, {"type": "Feature", "geometry": {"type": "Point", "coordinates": [-122.36562, 37.61962]}, "properties": {"location": "san_francisco_international_airport_ksfo", "station_name": "San Francisco International Airport (KSFO)"}}, {"type": "Feature", "geometry": {"type": "Point", "coordinates": [-121.92444, 37.35938]}, "properties": {"location": "san_jose_international_airport_ksjc", "station_name": "San Jose International Airport (KSJC)"}}, {"type": "Feature", "geometry": {"type": "Point", "coordinates": [-117.86746, 33.67975]}, "properties": {"location": "santa_ana_john_wayne_airport_ksna", "station_name": "Santa Ana John Wayne Airport (KSNA)"}}, {"type": "Feature", "geometry": {"type": "Point", "coordinates": [-116.16412, 33.63166]}, "properties": {"location": "desert_resorts_regional_airport_ktrm", "station_name": "Desert Resorts Regional Airport (KTRM)"}}, {"type": "Feature", "geometry": {"type": "Point", "coordinates": [-123.20015, 39.12781]}, "properties": {"location": "ukiah_municipal_airport_kuki", "station_name": "Ukiah Municipal Airport (KUKI)"}}, {"type": "Feature", "geometry": {"type": "Point", "coordinates": [-118.21255, 34.74121]}, "properties": {"location": "lancaster_william_j_fox_field_kwjf", "station_name": "Lancaster William J Fox Field (KWJF)"}}, {"type": "Feature", "geometry": {"type": "Point", "coordinates": [-124.10479, 40.97844]}, "properties": {"location": "arcata_eureka_airport_kacv", "station_name": "Arcata Eureka Airport (KACV)"}}, {"type": "Feature", "geometry": {"type": "Point", "coordinates": [-121.22637, 37.88997]}, "properties": {"location": "stockton_airport_ksck", "station_name": "Stockton Airport (KSCK)"}}, {"type": "Feature", "geometry": {"type": "Point", "coordinates": [-122.29773, 40.51462]}, "properties": {"location": "redding_airport_krdd", "station_name": "Redding Airport (KRDD)"}}, {"type": "Feature", "geometry": {"type": "Point", "coordinates": [-120.514, 37.285]}, "properties": {"location": "merced_municipal_airport_macready_field_kmce", "station_name": "Merced Municipal Airport MacReady Field (KMCE)"}}, {"type": "Feature", "geometry": {"type": "Point", "coordinates": [-115.163, 36.072]}, "properties": {"location": "mccarran_international_airport_klas", "station_name": "McCarran International Airport (KLAS)"}}, {"type": "Feature", "geometry": {"type": "Point", "coordinates": [-118.291, 34.024]}, "properties": {"location": "downtown_los_angeles_usc_campus_kcqt", "station_name": "Downtown Los Angeles USC Campus (KCQT)"}}, {"type": "Feature", "geometry": {"type": "Point", "coordinates": [-117.65, 34.067]}, "properties": {"location": "ontario_international_airport_kont", "station_name": "Ontario International Airport (KONT)"}}]}