{"type": "FeatureCollection", "features": [{"type": "Feature", "geometry": {"type": "Point", "coordinates": [-117.2571, 32.8669]}, "properties": {"station_code": "lj", "station_name": "La Jolla", "noaa_id": "9410230"}}, {"type": "Feature", "geometry": {"type": "Point", "coordinates": [-118.272, 33.72]}, "properties": {"station_code": "la", "station_name": "Los Angeles", "noaa_id": "9410660"}}, {"type": "Feature", "geometry": {"type": "Point", "coordinates": [-119.6925, 34.4046]}, "properties": {"station_code": "sb", "station_name": "Santa Barbara", "noaa_id": "9411340"}}, {"type": "Feature", "geometry": {"type": "Point", "coordinates": [-120.7542, 35.1689]}, "properties": {"station_code": "sl", "station_name": "San Luis", "noaa_id": "9412110"}}, {"type": "Feature", "geometry": {"type": "Point", "coordinates": [-121.8914, 36.6089]}, "properties": {"station_code": "my", "station_name": "Monterey", "noaa_id": "9413450"}}, {"type": "Feature", "geometry": {"type": "Point", "coordinates": [-122.4659, 37.8063]}, "properties": {"station_code": "sf", "station_name": "San Francisco", "noaa_id": "9414290"}}, {"type": "Feature", "geometry": {"type": "Point", "coordinates": [-123.7111, 38.9146]}, "properties": {"station_code": "pa", "station_name": "Point Arena", "noaa_id": "9416841"}}, {"type": "Feature", "geometry": {"type": "Point", "coordinates": [-124.2173, 40.7669]}, "properties": {"station_code": "hb", "station_name": "Humboldt Bay", "noaa_id": "9418767"}}, {"type": "Feature", "geometry": {"type": "Point", "coordinates": [-124.1844, 41.7456]}, "properties": {"station_code": "cc", "station_name": "Crescent City", "noaa_id": "9419750"}}, {"type": "Feature", "geometry": {"type": "Point", "coordinates": [-122.0395, 38.056]}, "properties": {"station_code": "pc", "station_name": "Port Chicago", "noaa_id": "9415144"}}, {"type": "Feature", "geometry": {"type": "Point", "coordinates": [-122.3003, 37.772]}, "properties": {"station_code": "al", "station_name": "Alameda", "noaa_id": "9414750"}}, {"type": "Feature", "geometry": {"type": "Point", "coordinates": [-122.2119, 37.5068]}, "properties": {"station_code": "rc", "station_name": "Redwood City", "noaa_id": "9414523"}}, {"type": "Feature", "geometry": {"type": "Point", "coordinates": [-122.358, 37.91]}, "properties": {"station_code": "ri", "station_name": "Richmond", "noaa_id": "9414849"}}]}